{
  "type": "FeatureCollection",
  "features": [
    {
      "type": "Feature",
      "properties": {
        "norad_id": 67018,
        "name": "STARLINK-36106",
        "group": "last-30-days",
        "lat": 18.121261090651107,
        "lon": -62.73213295548595,
        "alt_km": 328.5241486066225,
        "timestamp": "2025-12-24T05:51:18.328397+00:00",
        "meta_object_name": "STARLINK-36106",
        "meta_object_id": "2025-293R",
        "meta_epoch": "2025-12-23T22:00:01.999584",
        "meta_mean_motion": 15.82210891,
        "meta_eccentricity": 0.00039727,
        "meta_inclination": 69.9924,
        "meta_ra_of_asc_node": 291.355,
        "meta_arg_of_pericenter": 264.8183,
        "meta_mean_anomaly": 51.7521,
        "meta_ephemeris_type": 0,
        "meta_classification_type": "U",
        "meta_norad_cat_id": 67018,
        "meta_element_set_no": 999,
        "meta_rev_at_epoch": 202,
        "meta_bstar": -0.0093486572,
        "meta_mean_motion_dot": -0.01676733,
        "meta_mean_motion_ddot": 0,
        "tle_line1": "1 67018U 25293R   25357.91668981 -.01676733  00000+0 -93487-2 0  9990",
        "tle_line2": "2 67018  69.9924 291.3550 0003972 264.8183  51.7521 15.82210891  2023"
      },
      "geometry": {
        "type": "Point",
        "coordinates": [
          -62.73213295548595,
          18.121261090651107
        ]
      }
    },
    {
      "type": "Feature",
      "properties": {
        "norad_id": 67019,
        "name": "STARLINK-35688",
        "group": "last-30-days",
        "lat": 20.246971921292676,
        "lon": -61.859475847342544,
        "alt_km": 328.32361292237056,
        "timestamp": "2025-12-24T05:51:18.328406+00:00",
        "meta_object_name": "STARLINK-35688",
        "meta_object_id": "2025-293S",
        "meta_epoch": "2025-12-23T22:00:01.999584",
        "meta_mean_motion": 15.82198608,
        "meta_eccentricity": 0.00038314,
        "meta_inclination": 69.9922,
        "meta_ra_of_asc_node": 291.352,
        "meta_arg_of_pericenter": 263.4953,
        "meta_mean_anomaly": 55.3717,
        "meta_ephemeris_type": 0,
        "meta_classification_type": "U",
        "meta_norad_cat_id": 67019,
        "meta_element_set_no": 999,
        "meta_rev_at_epoch": 210,
        "meta_bstar": -0.0093614355,
        "meta_mean_motion_dot": -0.01677711,
        "meta_mean_motion_ddot": 0,
        "tle_line1": "1 67019U 25293S   25357.91668981 -.01677711  00000+0 -93614-2 0  9990",
        "tle_line2": "2 67019  69.9922 291.3520 0003831 263.4953  55.3717 15.82198608  2100"
      },
      "geometry": {
        "type": "Point",
        "coordinates": [
          -61.859475847342544,
          20.246971921292676
        ]
      }
    },
    {
      "type": "Feature",
      "properties": {
        "norad_id": 67020,
        "name": "STARLINK-36172",
        "group": "last-30-days",
        "lat": 22.809410002367077,
        "lon": -60.771879712409174,
        "alt_km": 327.9845328870342,
        "timestamp": "2025-12-24T05:51:18.328418+00:00",
        "meta_object_name": "STARLINK-36172",
        "meta_object_id": "2025-293T",
        "meta_epoch": "2025-12-23T22:00:01.999584",
        "meta_mean_motion": 15.82167412,
        "meta_eccentricity": 0.00040234,
        "meta_inclination": 69.9922,
        "meta_ra_of_asc_node": 291.3489,
        "meta_arg_of_pericenter": 267.8044,
        "meta_mean_anomaly": 53.8489,
        "meta_ephemeris_type": 0,
        "meta_classification_type": "U",
        "meta_norad_cat_id": 67020,
        "meta_element_set_no": 999,
        "meta_rev_at_epoch": 202,
        "meta_bstar": -0.0093611659,
        "meta_mean_motion_dot": -0.01675759,
        "meta_mean_motion_ddot": 0,
        "tle_line1": "1 67020U 25293T   25357.91668981 -.01675759  00000+0 -93612-2 0  9990",
        "tle_line2": "2 67020  69.9922 291.3489 0004023 267.8044  53.8489 15.82167412  2028"
      },
      "geometry": {
        "type": "Point",
        "coordinates": [
          -60.771879712409174,
          22.809410002367077
        ]
      }
    },
    {
      "type": "Feature",
      "properties": {
        "norad_id": 67021,
        "name": "STARLINK-36184",
        "group": "last-30-days",
        "lat": 25.17721122995113,
        "lon": -59.727325730883244,
        "alt_km": 327.769538066882,
        "timestamp": "2025-12-24T05:51:18.328428+00:00",
        "meta_object_name": "STARLINK-36184",
        "meta_object_id": "2025-293U",
        "meta_epoch": "2025-12-23T22:00:01.999584",
        "meta_mean_motion": 15.82145634,
        "meta_eccentricity": 0.00039577,
        "meta_inclination": 69.9925,
        "meta_ra_of_asc_node": 291.3457,
        "meta_arg_of_pericenter": 267.2226,
        "meta_mean_anomaly": 57.0103,
        "meta_ephemeris_type": 0,
        "meta_classification_type": "U",
        "meta_norad_cat_id": 67021,
        "meta_element_set_no": 999,
        "meta_rev_at_epoch": 202,
        "meta_bstar": -0.0093816438,
        "meta_mean_motion_dot": -0.01677365,
        "meta_mean_motion_ddot": 0,
        "tle_line1": "1 67021U 25293U   25357.91668981 -.01677365  00000+0 -93816-2 0  9992",
        "tle_line2": "2 67021  69.9925 291.3457 0003957 267.2226  57.0103 15.82145634  2029"
      },
      "geometry": {
        "type": "Point",
        "coordinates": [
          -59.727325730883244,
          25.17721122995113
        ]
      }
    },
    {
      "type": "Feature",
      "properties": {
        "norad_id": 67022,
        "name": "STARLINK-36209",
        "group": "last-30-days",
        "lat": 27.850524388095433,
        "lon": -58.49284337148212,
        "alt_km": 327.4246216903466,
        "timestamp": "2025-12-24T05:51:18.328437+00:00",
        "meta_object_name": "STARLINK-36209",
        "meta_object_id": "2025-293V",
        "meta_epoch": "2025-12-23T22:00:01.999584",
        "meta_mean_motion": 15.82110661,
        "meta_eccentricity": 0.00037773,
        "meta_inclination": 69.9923,
        "meta_ra_of_asc_node": 291.3424,
        "meta_arg_of_pericenter": 268.3823,
        "meta_mean_anomaly": 58.7833,
        "meta_ephemeris_type": 0,
        "meta_classification_type": "U",
        "meta_norad_cat_id": 67022,
        "meta_element_set_no": 999,
        "meta_rev_at_epoch": 202,
        "meta_bstar": -0.0093804473,
        "meta_mean_motion_dot": -0.01674576,
        "meta_mean_motion_ddot": 0,
        "tle_line1": "1 67022U 25293V   25357.91668981 -.01674576  00000+0 -93804-2 0  9991",
        "tle_line2": "2 67022  69.9923 291.3424 0003777 268.3823  58.7833 15.82110661  2027"
      },
      "geometry": {
        "type": "Point",
        "coordinates": [
          -58.49284337148212,
          27.850524388095433
        ]
      }
    },
    {
      "type": "Feature",
      "properties": {
        "norad_id": 67023,
        "name": "STARLINK-36191",
        "group": "last-30-days",
        "lat": 30.118699375151355,
        "lon": -57.393141940485066,
        "alt_km": 327.3581645233462,
        "timestamp": "2025-12-24T05:51:18.328449+00:00",
        "meta_object_name": "STARLINK-36191",
        "meta_object_id": "2025-293W",
        "meta_epoch": "2025-12-23T22:00:01.999584",
        "meta_mean_motion": 15.8208989,
        "meta_eccentricity": 0.00038197,
        "meta_inclination": 69.9921,
        "meta_ra_of_asc_node": 291.3388,
        "meta_arg_of_pericenter": 264.3337,
        "meta_mean_anomaly": 65.3189,
        "meta_ephemeris_type": 0,
        "meta_classification_type": "U",
        "meta_norad_cat_id": 67023,
        "meta_element_set_no": 999,
        "meta_rev_at_epoch": 191,
        "meta_bstar": -0.0093640042,
        "meta_mean_motion_dot": -0.01670664,
        "meta_mean_motion_ddot": 0,
        "tle_line1": "1 67023U 25293W   25357.91668981 -.01670664  00000+0 -93640-2 0  9994",
        "tle_line2": "2 67023  69.9921 291.3388 0003819 264.3337  65.3189 15.82089890  1912"
      },
      "geometry": {
        "type": "Point",
        "coordinates": [
          -57.393141940485066,
          30.118699375151355
        ]
      }
    },
    {
      "type": "Feature",
      "properties": {
        "norad_id": 67024,
        "name": "STARLINK-36192",
        "group": "last-30-days",
        "lat": 32.616393141070425,
        "lon": -56.11525374009961,
        "alt_km": 327.08890880773197,
        "timestamp": "2025-12-24T05:51:18.328459+00:00",
        "meta_object_name": "STARLINK-36192",
        "meta_object_id": "2025-293X",
        "meta_epoch": "2025-12-23T22:00:01.999584",
        "meta_mean_motion": 15.82062649,
        "meta_eccentricity": 0.0003873,
        "meta_inclination": 69.9923,
        "meta_ra_of_asc_node": 291.3359,
        "meta_arg_of_pericenter": 266.1126,
        "meta_mean_anomaly": 66.2971,
        "meta_ephemeris_type": 0,
        "meta_classification_type": "U",
        "meta_norad_cat_id": 67024,
        "meta_element_set_no": 999,
        "meta_rev_at_epoch": 202,
        "meta_bstar": -0.0094020267,
        "meta_mean_motion_dot": -0.01674742,
        "meta_mean_motion_ddot": 0,
        "tle_line1": "1 67024U 25293X   25357.91668981 -.01674742  00000+0 -94020-2 0  9999",
        "tle_line2": "2 67024  69.9923 291.3359 0003873 266.1126  66.2971 15.82062649  2024"
      },
      "geometry": {
        "type": "Point",
        "coordinates": [
          -56.11525374009961,
          32.616393141070425
        ]
      }
    }
  ]
}